start=new Date('2022-05-20T00:00:00.000Z').valueOf();
sats=[{"COUNTRY_CODE":"US","OBJECT_TYPE":"PAYLOAD","CENTER_NAME":"EARTH","OBJECT_NAME":"STARLINK-1916","ARG_OF_PERICENTER":"49.5229","BSTAR":"0.00006898600000","EPOCH":"2022-05-19T14:31:51.877056","TIME_SYSTEM":"UTC","REF_FRAME":"TEME","RA_OF_ASC_NODE":"96.9363","MEAN_ANOMALY":"310.5933","LAUNCH_DATE":"2020-10-24","PERIAPSIS":"545.836","NORAD_CAT_ID":"46766","MEAN_MOTION_DDOT":"0.0000000000000","MEAN_MOTION_DOT":"0.00000746","APOAPSIS":"548.578","FILE":"3453812","RCS_SIZE":"LARGE","MEAN_ELEMENT_THEORY":"SGP4","DECAY_DATE":null,"REV_AT_EPOCH":"8695","SITE":"AFETR","ELEMENT_SET_NO":"999","MEAN_MOTION":"15.06402109","TLE_LINE1":"1 46766U 20074AD  22139.60546154  .00000746  00000-0  68986-4 0  9998","CLASSIFICATION_TYPE":"U","INCLINATION":"53.0557","PERIOD":"95.592","EPHEMERIS_TYPE":"0","GP_ID":"203987211","SEMIMAJOR_AXIS":"6925.342","OBJECT_ID":"2020-074AD","ECCENTRICITY":"0.00019800","TLE_LINE2":"2 46766  53.0557  96.9363 0001980  49.5229 310.5933 15.06402109 86951"},{"DECAY_DATE":null,"RCS_SIZE":"LARGE","FILE":"3453038","MEAN_ELEMENT_THEORY":"SGP4","MEAN_MOTION":"15.06398971","SITE":"AFETR","ELEMENT_SET_NO":"999","REV_AT_EPOCH":"8688","CLASSIFICATION_TYPE":"U","TLE_LINE1":"1 46767U 20074AE  22139.17051738  .00001634  00000-0  12859-3 0  9994","PERIOD":"95.592","INCLINATION":"53.0562","GP_ID":"203943081","EPHEMERIS_TYPE":"0","ECCENTRICITY":"0.00019500","SEMIMAJOR_AXIS":"6925.352","OBJECT_ID":"2020-074AE","TLE_LINE2":"2 46767  53.0562  98.9032 0001950  48.5713 311.5443 15.06398971 86887","COUNTRY_CODE":"US","CENTER_NAME":"EARTH","OBJECT_TYPE":"PAYLOAD","EPOCH":"2022-05-19T04:05:32.701632","BSTAR":"0.00012859000000","ARG_OF_PERICENTER":"48.5713","OBJECT_NAME":"STARLINK-1917","TIME_SYSTEM":"UTC","MEAN_ANOMALY":"311.5443","RA_OF_ASC_NODE":"98.9032","REF_FRAME":"TEME","NORAD_CAT_ID":"46767","MEAN_MOTION_DDOT":"0.0000000000000","PERIAPSIS":"545.866","LAUNCH_DATE":"2020-10-24","APOAPSIS":"548.567","MEAN_MOTION_DOT":"0.00001634"},{"TLE_LINE2":"2 46768  53.0550  97.1031 0002036  52.7658 307.3517 15.06395952 86944","OBJECT_ID":"2020-074AF","SEMIMAJOR_AXIS":"6925.361","ECCENTRICITY":"0.00020360","EPHEMERIS_TYPE":"0","GP_ID":"203943831","PERIOD":"95.592","INCLINATION":"53.0550","TLE_LINE1":"1 46768U 20074AF  22139.57228797  .00000241  00000-0  35086-4 0  9991","CLASSIFICATION_TYPE":"U","REV_AT_EPOCH":"8694","SITE":"AFETR","MEAN_MOTION":"15.06395952","ELEMENT_SET_NO":"999","RCS_SIZE":"LARGE","FILE":"3453038","MEAN_ELEMENT_THEORY":"SGP4","DECAY_DATE":null,"MEAN_MOTION_DOT":"0.00000241","APOAPSIS":"548.636","PERIAPSIS":"545.816","LAUNCH_DATE":"2020-10-24","NORAD_CAT_ID":"46768","MEAN_MOTION_DDOT":"0.0000000000000","REF_FRAME":"TEME","RA_OF_ASC_NODE":"97.1031","MEAN_ANOMALY":"307.3517","TIME_SYSTEM":"UTC","OBJECT_NAME":"STARLINK-1918","ARG_OF_PERICENTER":"52.7658","BSTAR":"0.00003508600000","EPOCH":"2022-05-19T13:44:05.680608","CENTER_NAME":"EARTH","OBJECT_TYPE":"PAYLOAD","COUNTRY_CODE":"US"},{"EPOCH":"2022-05-19T14:37:56.535168","OBJECT_NAME":"STARLINK-1932","ARG_OF_PERICENTER":"43.8385","BSTAR":"0.00001932700000","TIME_SYSTEM":"UTC","COUNTRY_CODE":"US","CENTER_NAME":"EARTH","OBJECT_TYPE":"PAYLOAD","MEAN_MOTION_DDOT":"0.0000000000000","NORAD_CAT_ID":"46770","LAUNCH_DATE":"2020-10-24","PERIAPSIS":"553.315","MEAN_MOTION_DOT":"-0.00000006","APOAPSIS":"556.167","REF_FRAME":"TEME","MEAN_ANOMALY":"316.2766","RA_OF_ASC_NODE":"97.1013","CLASSIFICATION_TYPE":"U","TLE_LINE1":"1 46770U 20074AH  22139.60968212 -.00000006  00000-0  19327-4 0  9991","DECAY_DATE":null,"RCS_SIZE":"LARGE","FILE":"3453812","MEAN_ELEMENT_THEORY":"SGP4","SITE":"AFETR","ELEMENT_SET_NO":"999","MEAN_MOTION":"15.03947158","REV_AT_EPOCH":"8694","ECCENTRICITY":"0.00020570","SEMIMAJOR_AXIS":"6932.876","OBJECT_ID":"2020-074AH","TLE_LINE2":"2 46770  53.0566  97.1013 0002057  43.8385 316.2766 15.03947158 86948","INCLINATION":"53.0566","PERIOD":"95.748","EPHEMERIS_TYPE":"0","GP_ID":"203986463"},{"TLE_LINE1":"1 46772U 20074AK  22139.57966864 -.00001244  00000-0 -64611-4 0  9992","CLASSIFICATION_TYPE":"U","MEAN_ELEMENT_THEORY":"SGP4","FILE":"3453464","RCS_SIZE":"LARGE","DECAY_DATE":null,"REV_AT_EPOCH":"8696","MEAN_MOTION":"15.06387616","SITE":"AFETR","ELEMENT_SET_NO":"999","SEMIMAJOR_AXIS":"6925.387","OBJECT_ID":"2020-074AK","ECCENTRICITY":"0.00022260","TLE_LINE2":"2 46772  53.0560  97.0693 0002226  54.5151 305.6046 15.06387616 86960","INCLINATION":"53.0560","PERIOD":"95.593","GP_ID":"203958212","EPHEMERIS_TYPE":"0","BSTAR":"-0.00006461100000","ARG_OF_PERICENTER":"54.5151","OBJECT_NAME":"STARLINK-1936","EPOCH":"2022-05-19T13:54:43.370496","TIME_SYSTEM":"UTC","COUNTRY_CODE":"US","OBJECT_TYPE":"PAYLOAD","CENTER_NAME":"EARTH","LAUNCH_DATE":"2020-10-24","PERIAPSIS":"545.710","NORAD_CAT_ID":"46772","MEAN_MOTION_DDOT":"0.0000000000000","APOAPSIS":"548.793","MEAN_MOTION_DOT":"-0.00001244","RA_OF_ASC_NODE":"97.0693","MEAN_ANOMALY":"305.6046","REF_FRAME":"TEME"},{"REF_FRAME":"TEME","MEAN_ANOMALY":"292.3666","RA_OF_ASC_NODE":"90.5412","PERIAPSIS":"522.208","LAUNCH_DATE":"2020-10-24","NORAD_CAT_ID":"46774","MEAN_MOTION_DDOT":"0.0000000000000","MEAN_MOTION_DOT":"0.00045460","APOAPSIS":"526.623","COUNTRY_CODE":"US","OBJECT_TYPE":"PAYLOAD","CENTER_NAME":"EARTH","ARG_OF_PERICENTER":"67.7665","OBJECT_NAME":"STARLINK-1939","BSTAR":"0.00248470000000","EPOCH":"2022-05-19T13:54:54.389952","TIME_SYSTEM":"UTC","PERIOD":"95.121","INCLINATION":"53.0508","EPHEMERIS_TYPE":"0","GP_ID":"203987963","SEMIMAJOR_AXIS":"6902.551","OBJECT_ID":"2020-074AM","ECCENTRICITY":"0.00031980","TLE_LINE2":"2 46774  53.0508  90.5412 0003198  67.7665 292.3666 15.13869241 87043","FILE":"3453812","RCS_SIZE":"LARGE","MEAN_ELEMENT_THEORY":"SGP4","DECAY_DATE":null,"REV_AT_EPOCH":"8704","SITE":"AFETR","MEAN_MOTION":"15.13869241","ELEMENT_SET_NO":"999","TLE_LINE1":"1 46774U 20074AM  22139.57979618  .00045460  00000-0  24847-2 0  9996","CLASSIFICATION_TYPE":"U"},{"PERIOD":"93.373","INCLINATION":"53.0555","EPHEMERIS_TYPE":"0","GP_ID":"203958300","OBJECT_ID":"2020-074AP","SEMIMAJOR_AXIS":"6817.770","ECCENTRICITY":"0.00043720","TLE_LINE2":"2 46776  53.0555  72.9421 0004372  15.2065 344.9070 15.42194825 86940","FILE":"3453470","MEAN_ELEMENT_THEORY":"SGP4","RCS_SIZE":"LARGE","DECAY_DATE":null,"REV_AT_EPOCH":"8694","ELEMENT_SET_NO":"999","SITE":"AFETR","MEAN_MOTION":"15.42194825","TLE_LINE1":"1 46776U 20074AP  22139.22816821  .00019136  00000-0  44747-3 0  9999","CLASSIFICATION_TYPE":"U","REF_FRAME":"TEME","MEAN_ANOMALY":"344.9070","RA_OF_ASC_NODE":"72.9421","LAUNCH_DATE":"2020-10-24","PERIAPSIS":"436.654","MEAN_MOTION_DDOT":"0.0000000000000","NORAD_CAT_ID":"46776","MEAN_MOTION_DOT":"0.00019136","APOAPSIS":"442.616","COUNTRY_CODE":"US","CENTER_NAME":"EARTH","OBJECT_TYPE":"PAYLOAD","OBJECT_NAME":"STARLINK-1946","ARG_OF_PERICENTER":"15.2065","BSTAR":"0.00044747000000","EPOCH":"2022-05-19T05:28:33.733344","TIME_SYSTEM":"UTC"},{"EPOCH":"2022-05-19T19:24:27.120672","BSTAR":"-0.00001817000000","ARG_OF_PERICENTER":"43.6934","OBJECT_NAME":"STARLINK-1798","TIME_SYSTEM":"UTC","COUNTRY_CODE":"US","OBJECT_TYPE":"PAYLOAD","CENTER_NAME":"EARTH","NORAD_CAT_ID":"46779","MEAN_MOTION_DDOT":"0.0000000000000","LAUNCH_DATE":"2020-10-24","PERIAPSIS":"546.137","APOAPSIS":"548.333","MEAN_MOTION_DOT":"-0.00000552","RA_OF_ASC_NODE":"71.0394","MEAN_ANOMALY":"316.4180","REF_FRAME":"TEME","CLASSIFICATION_TYPE":"U","TLE_LINE1":"1 46779U 20074AS  22139.80864723 -.00000552  00000-0 -18170-4 0  9996","DECAY_DATE":null,"RCS_SIZE":"LARGE","FILE":"3453293","MEAN_ELEMENT_THEORY":"SGP4","MEAN_MOTION":"15.06393015","SITE":"AFETR","ELEMENT_SET_NO":"999","REV_AT_EPOCH":"8704","ECCENTRICITY":"0.00015850","SEMIMAJOR_AXIS":"6925.370","OBJECT_ID":"2020-074AS","TLE_LINE2":"2 46779  53.0580  71.0394 0001585  43.6934 316.4180 15.06393015 87043","PERIOD":"95.593","INCLINATION":"53.0580","GP_ID":"203953371","EPHEMERIS_TYPE":"0"},{"SEMIMAJOR_AXIS":"6925.336","OBJECT_ID":"2020-074AT","ECCENTRICITY":"0.00017860","TLE_LINE2":"2 46780  53.0549  71.1028 0001786  52.7060 307.4092 15.06404175 87322","PERIOD":"95.592","INCLINATION":"53.0549","GP_ID":"203987212","EPHEMERIS_TYPE":"0","TLE_LINE1":"1 46780U 20074AT  22139.79759494 -.00000737  00000-0 -30557-4 0  9992","CLASSIFICATION_TYPE":"U","MEAN_ELEMENT_THEORY":"SGP4","FILE":"3453812","RCS_SIZE":"LARGE","DECAY_DATE":null,"REV_AT_EPOCH":"8732","SITE":"AFETR","ELEMENT_SET_NO":"999","MEAN_MOTION":"15.06404175","LAUNCH_DATE":"2020-10-24","PERIAPSIS":"545.964","MEAN_MOTION_DDOT":"0.0000000000000","NORAD_CAT_ID":"46780","APOAPSIS":"548.438","MEAN_MOTION_DOT":"-0.00000737","RA_OF_ASC_NODE":"71.1028","MEAN_ANOMALY":"307.4092","REF_FRAME":"TEME","BSTAR":"-0.00003055700000","ARG_OF_PERICENTER":"52.7060","OBJECT_NAME":"STARLINK-1832","EPOCH":"2022-05-19T19:08:32.202816","TIME_SYSTEM":"UTC","COUNTRY_CODE":"US","OBJECT_TYPE":"PAYLOAD","CENTER_NAME":"EARTH"},{"OBJECT_NAME":"STARLINK-1834","ARG_OF_PERICENTER":"50.1711","BSTAR":"0.00001563500000","EPOCH":"2022-05-19T13:11:34.910304","TIME_SYSTEM":"UTC","COUNTRY_CODE":"US","CENTER_NAME":"EARTH","OBJECT_TYPE":"PAYLOAD","LAUNCH_DATE":"2020-10-24","PERIAPSIS":"546.057","MEAN_MOTION_DDOT":"0.0000000000000","NORAD_CAT_ID":"46781","MEAN_MOTION_DOT":"-0.00000049","APOAPSIS":"548.393","REF_FRAME":"TEME","MEAN_ANOMALY":"309.9427","RA_OF_ASC_NODE":"82.2070","TLE_LINE1":"1 46781U 20074AU  22139.54970961 -.00000049  00000-0  15635-4 0  9995","CLASSIFICATION_TYPE":"U","RCS_SIZE":"LARGE","FILE":"3453294","MEAN_ELEMENT_THEORY":"SGP4","DECAY_DATE":null,"REV_AT_EPOCH":"8688","MEAN_MOTION":"15.06396269","SITE":"AFETR","ELEMENT_SET_NO":"999","OBJECT_ID":"2020-074AU","SEMIMAJOR_AXIS":"6925.360","ECCENTRICITY":"0.00016870","TLE_LINE2":"2 46781  53.0553  82.2070 0001687  50.1711 309.9427 15.06396269 86886","INCLINATION":"53.0553","PERIOD":"95.592","EPHEMERIS_TYPE":"0","GP_ID":"203953385"}];
